KUIPER-00044            
1 64505U 25134F   25197.16668981 -.00768248  00000+0 -26744-1 0  9994
2 64505  51.8662 221.7102 0010577 198.9830  27.1405 15.31435305  4264
KUIPER-00046            
1 64506U 25134G   25196.40309487  .00016889  00000+0  50834-3 0  9998
2 64506  51.8667 225.3198 0009622 192.9899 167.0840 15.34431263  4150
KUIPER-00047            
1 64507U 25134H   25196.79834175  .00013302  00000+0  40726-3 0  9994
2 64507  51.8621 223.4595 0010254 204.1814 155.8691 15.34088727  4676
KUIPER-00048            
1 64508U 25134J   25197.09573699  .00027214  00000+0  77101-3 0  9994
2 64508  51.8754 221.7278 0003109 174.1152 185.9872 15.36062124  4260
KUIPER-00049            
1 64509U 25134K   25196.78375617  .00018877  00000+0  55474-3 0  9994
2 64509  51.8702 223.3802 0006768 187.3899 172.6988 15.35125590  4675
KUIPER-00050            
1 64510U 25134L   25196.78577540  .00015041  00000+0  44663-3 0  9993
2 64510  51.8715 223.3939 0007291 187.5876 172.5001 15.34971592  4676
KUIPER-00051            
1 64511U 25134M   25196.77882982  .00020289  00000+0  58971-3 0  9999
2 64511  51.8723 223.3496 0005029 178.9719 181.1278 15.35430918  4676
KUIPER-00052            
1 64512U 25134N   25197.22184721  .00019053  00000+0  50723-3 0  9991
2 64512  51.8747 221.0753 0003493 197.3180 162.7688 15.38216778  4280
